{
  "type": "FeatureCollection",
  "features": [
    {
      "type": "Feature",
      "properties": {
        "norad_id": 66566,
        "name": "STARLINK-35871",
        "group": "last-30-days",
        "lat": 20.27223301194397,
        "lon": -20.702313997558356,
        "alt_km": 334.52577869229754,
        "timestamp": "2025-12-02T08:59:31.504440+00:00",
        "meta_object_name": "STARLINK-35871",
        "meta_object_id": "2025-268K",
        "meta_epoch": "2025-12-02T04:00:03.998880",
        "meta_mean_motion": 15.78441374,
        "meta_eccentricity": 0.0001854,
        "meta_inclination": 42.9971,
        "meta_ra_of_asc_node": 183.92,
        "meta_arg_of_pericenter": 277.4373,
        "meta_mean_anomaly": 129.0932,
        "meta_ephemeris_type": 0,
        "meta_classification_type": "U",
        "meta_norad_cat_id": 66566,
        "meta_element_set_no": 999,
        "meta_rev_at_epoch": 297,
        "meta_bstar": -0.010138,
        "meta_mean_motion_dot": -0.01583342,
        "meta_mean_motion_ddot": 0,
        "tle_line1": "1 66566U 25268K   25336.16671295 -.01583342  00000+0 -10138-1 0  9999",
        "tle_line2": "2 66566  42.9971 183.9200 0001854 277.4373 129.0932 15.78441374  2975"
      },
      "geometry": {
        "type": "Point",
        "coordinates": [
          -20.702313997558356,
          20.27223301194397
        ]
      }
    },
    {
      "type": "Feature",
      "properties": {
        "norad_id": 66567,
        "name": "STARLINK-35825",
        "group": "last-30-days",
        "lat": 18.974239038173888,
        "lon": -19.00748239453022,
        "alt_km": 334.7390745960256,
        "timestamp": "2025-12-02T08:59:31.504450+00:00",
        "meta_object_name": "STARLINK-35825",
        "meta_object_id": "2025-268L",
        "meta_epoch": "2025-12-02T04:00:03.998880",
        "meta_mean_motion": 15.78402143,
        "meta_eccentricity": 0.0001818,
        "meta_inclination": 42.9972,
        "meta_ra_of_asc_node": 183.9149,
        "meta_arg_of_pericenter": 274.2467,
        "meta_mean_anomaly": 134.3752,
        "meta_ephemeris_type": 0,
        "meta_classification_type": "U",
        "meta_norad_cat_id": 66567,
        "meta_element_set_no": 999,
        "meta_rev_at_epoch": 297,
        "meta_bstar": -0.010212,
        "meta_mean_motion_dot": -0.01590979,
        "meta_mean_motion_ddot": 0,
        "tle_line1": "1 66567U 25268L   25336.16671295 -.01590979  00000+0 -10212-1 0  9997",
        "tle_line2": "2 66567  42.9972 183.9149 0001818 274.2467 134.3752 15.78402143  2978"
      },
      "geometry": {
        "type": "Point",
        "coordinates": [
          -19.00748239453022,
          18.974239038173888
        ]
      }
    },
    {
      "type": "Feature",
      "properties": {
        "norad_id": 66568,
        "name": "STARLINK-35803",
        "group": "last-30-days",
        "lat": 17.606429860145028,
        "lon": -17.2713233581909,
        "alt_km": 335.28000044142755,
        "timestamp": "2025-12-02T08:59:31.504460+00:00",
        "meta_object_name": "STARLINK-35803",
        "meta_object_id": "2025-268M",
        "meta_epoch": "2025-12-02T04:00:03.998880",
        "meta_mean_motion": 15.78402418,
        "meta_eccentricity": 0.0001592,
        "meta_inclination": 42.9969,
        "meta_ra_of_asc_node": 183.9093,
        "meta_arg_of_pericenter": 289.2245,
        "meta_mean_anomaly": 121.5629,
        "meta_ephemeris_type": 0,
        "meta_classification_type": "U",
        "meta_norad_cat_id": 66568,
        "meta_element_set_no": 999,
        "meta_rev_at_epoch": 297,
        "meta_bstar": -0.011195,
        "meta_mean_motion_dot": -0.01759362,
        "meta_mean_motion_ddot": 0,
        "tle_line1": "1 66568U 25268M   25336.16671295 -.01759362  00000+0 -11195-1 0  9992",
        "tle_line2": "2 66568  42.9969 183.9093 0001592 289.2245 121.5629 15.78402418  2978"
      },
      "geometry": {
        "type": "Point",
        "coordinates": [
          -17.2713233581909,
          17.606429860145028
        ]
      }
    },
    {
      "type": "Feature",
      "properties": {
        "norad_id": 66569,
        "name": "STARLINK-35835",
        "group": "last-30-days",
        "lat": 16.355779695594187,
        "lon": -15.722765783926,
        "alt_km": 335.4276224980631,
        "timestamp": "2025-12-02T08:59:31.504470+00:00",
        "meta_object_name": "STARLINK-35835",
        "meta_object_id": "2025-268N",
        "meta_epoch": "2025-12-02T04:00:03.998880",
        "meta_mean_motion": 15.78330589,
        "meta_eccentricity": 0.0001788,
        "meta_inclination": 42.997,
        "meta_ra_of_asc_node": 183.9043,
        "meta_arg_of_pericenter": 281.3102,
        "meta_mean_anomaly": 131.4524,
        "meta_ephemeris_type": 0,
        "meta_classification_type": "U",
        "meta_norad_cat_id": 66569,
        "meta_element_set_no": 999,
        "meta_rev_at_epoch": 297,
        "meta_bstar": -0.010357,
        "meta_mean_motion_dot": -0.01605987,
        "meta_mean_motion_ddot": 0,
        "tle_line1": "1 66569U 25268N   25336.16671295 -.01605987  00000+0 -10357-1 0  9995",
        "tle_line2": "2 66569  42.9970 183.9043 0001788 281.3102 131.4524 15.78330589  2971"
      },
      "geometry": {
        "type": "Point",
        "coordinates": [
          -15.722765783926,
          16.355779695594187
        ]
      }
    },
    {
      "type": "Feature",
      "properties": {
        "norad_id": 66570,
        "name": "STARLINK-35834",
        "group": "last-30-days",
        "lat": 14.998308550928476,
        "lon": -14.079464383067513,
        "alt_km": 335.69577508475686,
        "timestamp": "2025-12-02T08:59:31.504482+00:00",
        "meta_object_name": "STARLINK-35834",
        "meta_object_id": "2025-268P",
        "meta_epoch": "2025-12-02T04:00:03.998880",
        "meta_mean_motion": 15.78276801,
        "meta_eccentricity": 0.000178,
        "meta_inclination": 42.9971,
        "meta_ra_of_asc_node": 183.899,
        "meta_arg_of_pericenter": 277.8913,
        "meta_mean_anomaly": 137.0018,
        "meta_ephemeris_type": 0,
        "meta_classification_type": "U",
        "meta_norad_cat_id": 66570,
        "meta_element_set_no": 999,
        "meta_rev_at_epoch": 297,
        "meta_bstar": -0.010452,
        "meta_mean_motion_dot": -0.01615231,
        "meta_mean_motion_ddot": 0,
        "tle_line1": "1 66570U 25268P   25336.16671295 -.01615231  00000+0 -10452-1 0  9996",
        "tle_line2": "2 66570  42.9971 183.8990 0001780 277.8913 137.0018 15.78276801  2972"
      },
      "geometry": {
        "type": "Point",
        "coordinates": [
          -14.079464383067513,
          14.998308550928476
        ]
      }
    },
    {
      "type": "Feature",
      "properties": {
        "norad_id": 66571,
        "name": "STARLINK-35836",
        "group": "last-30-days",
        "lat": 13.63152561165747,
        "lon": -12.459728308924364,
        "alt_km": 336.0018983536638,
        "timestamp": "2025-12-02T08:59:31.504492+00:00",
        "meta_object_name": "STARLINK-35836",
        "meta_object_id": "2025-268Q",
        "meta_epoch": "2025-12-02T04:00:03.998880",
        "meta_mean_motion": 15.78228805,
        "meta_eccentricity": 0.0001717,
        "meta_inclination": 42.9973,
        "meta_ra_of_asc_node": 183.8938,
        "meta_arg_of_pericenter": 277.7712,
        "meta_mean_anomaly": 139.2445,
        "meta_ephemeris_type": 0,
        "meta_classification_type": "U",
        "meta_norad_cat_id": 66571,
        "meta_element_set_no": 999,
        "meta_rev_at_epoch": 297,
        "meta_bstar": -0.010594,
        "meta_mean_motion_dot": -0.01664048,
        "meta_mean_motion_ddot": 0,
        "tle_line1": "1 66571U 25268Q   25336.16671295 -.01664048  00000+0 -10594-1 0  9994",
        "tle_line2": "2 66571  42.9973 183.8938 0001717 277.7712 139.2445 15.78228805  2972"
      },
      "geometry": {
        "type": "Point",
        "coordinates": [
          -12.459728308924364,
          13.63152561165747
        ]
      }
    },
    {
      "type": "Feature",
      "properties": {
        "norad_id": 66572,
        "name": "STARLINK-35870",
        "group": "last-30-days",
        "lat": 12.245136423763746,
        "lon": -10.847805426294723,
        "alt_km": 336.3760908493068,
        "timestamp": "2025-12-02T08:59:31.504507+00:00",
        "meta_object_name": "STARLINK-35870",
        "meta_object_id": "2025-268R",
        "meta_epoch": "2025-12-02T04:00:03.998880",
        "meta_mean_motion": 15.78170004,
        "meta_eccentricity": 0.000175,
        "meta_inclination": 42.9978,
        "meta_ra_of_asc_node": 183.8888,
        "meta_arg_of_pericenter": 278.2405,
        "meta_mean_anomaly": 140.9198,
        "meta_ephemeris_type": 0,
        "meta_classification_type": "U",
        "meta_norad_cat_id": 66572,
        "meta_element_set_no": 999,
        "meta_rev_at_epoch": 297,
        "meta_bstar": -0.010705,
        "meta_mean_motion_dot": -0.01675591,
        "meta_mean_motion_ddot": 0,
        "tle_line1": "1 66572U 25268R   25336.16671295 -.01675591  00000+0 -10705-1 0  9994",
        "tle_line2": "2 66572  42.9978 183.8888 0001750 278.2405 140.9198 15.78170004  2975"
      },
      "geometry": {
        "type": "Point",
        "coordinates": [
          -10.847805426294723,
          12.245136423763746
        ]
      }
    }
  ]
}